{
  "type": "FeatureCollection",
  "features": [
    {
      "type": "Feature",
      "properties": {
        "norad_id": 43208,
        "name": "BEIDOU-3 M3 (C21)",
        "group": "beidou",
        "lat": 47.82350662652364,
        "lon": 116.59332024190375,
        "alt_km": 21526.832496794363,
        "timestamp": "2025-12-02T07:10:09.380518+00:00",
        "meta_object_name": "BEIDOU-3 M3 (C21)",
        "meta_object_id": "2018-018B",
        "meta_epoch": "2025-12-01T16:02:18.991968",
        "meta_mean_motion": 1.8623092,
        "meta_eccentricity": 0.0006202,
        "meta_inclination": 56.4757,
        "meta_ra_of_asc_node": 69.6754,
        "meta_arg_of_pericenter": 317.7511,
        "meta_mean_anomaly": 42.2037,
        "meta_ephemeris_type": 0,
        "meta_classification_type": "U",
        "meta_norad_cat_id": 43208,
        "meta_element_set_no": 999,
        "meta_rev_at_epoch": 5306,
        "meta_bstar": 0,
        "meta_mean_motion_dot": -4.2e-07,
        "meta_mean_motion_ddot": 0,
        "tle_line1": "1 43208U 18018B   25335.66827537 -.00000042  00000+0  00000+0 0  9992",
        "tle_line2": "2 43208  56.4757  69.6754 0006202 317.7511  42.2037  1.86230920 53068"
      },
      "geometry": {
        "type": "Point",
        "coordinates": [
          116.59332024190375,
          47.82350662652364
        ]
      }
    },
    {
      "type": "Feature",
      "properties": {
        "norad_id": 43245,
        "name": "BEIDOU-3 M9 (C29)",
        "group": "beidou",
        "lat": -53.63197617654834,
        "lon": -129.93218821975523,
        "alt_km": 21529.12948827473,
        "timestamp": "2025-12-02T07:10:09.380529+00:00",
        "meta_object_name": "BEIDOU-3 M9 (C29)",
        "meta_object_id": "2018-029A",
        "meta_epoch": "2025-12-01T08:20:14.784576",
        "meta_mean_motion": 1.86227904,
        "meta_eccentricity": 0.00017985,
        "meta_inclination": 54.3765,
        "meta_ra_of_asc_node": 306.8658,
        "meta_arg_of_pericenter": 272.1738,
        "meta_mean_anomaly": 87.7976,
        "meta_ephemeris_type": 0,
        "meta_classification_type": "U",
        "meta_norad_cat_id": 43245,
        "meta_element_set_no": 999,
        "meta_rev_at_epoch": 5221,
        "meta_bstar": 0,
        "meta_mean_motion_dot": -5.8e-07,
        "meta_mean_motion_ddot": 0,
        "tle_line1": "1 43245U 18029A   25335.34739334 -.00000058  00000+0  00000+0 0  9994",
        "tle_line2": "2 43245  54.3765 306.8658 0001798 272.1738  87.7976  1.86227904 52214"
      },
      "geometry": {
        "type": "Point",
        "coordinates": [
          -129.93218821975523,
          -53.63197617654834
        ]
      }
    },
    {
      "type": "Feature",
      "properties": {
        "norad_id": 43246,
        "name": "BEIDOU-3 M10 (C30)",
        "group": "beidou",
        "lat": -30.643716013191707,
        "lon": -78.29039837853647,
        "alt_km": 21523.46699721198,
        "timestamp": "2025-12-02T07:10:09.380540+00:00",
        "meta_object_name": "BEIDOU-3 M10 (C30)",
        "meta_object_id": "2018-029B",
        "meta_epoch": "2025-11-29T03:14:13.986240",
        "meta_mean_motion": 1.86228967,
        "meta_eccentricity": 0.00039142,
        "meta_inclination": 54.3758,
        "meta_ra_of_asc_node": 306.9698,
        "meta_arg_of_pericenter": 358.6776,
        "meta_mean_anomaly": 1.3207,
        "meta_ephemeris_type": 0,
        "meta_classification_type": "U",
        "meta_norad_cat_id": 43246,
        "meta_element_set_no": 999,
        "meta_rev_at_epoch": 5215,
        "meta_bstar": 0,
        "meta_mean_motion_dot": -4.6e-07,
        "meta_mean_motion_ddot": 0,
        "tle_line1": "1 43246U 18029B   25333.13488410 -.00000046  00000+0  00000+0 0  9993",
        "tle_line2": "2 43246  54.3758 306.9698 0003914 358.6776   1.3207  1.86228967 52158"
      },
      "geometry": {
        "type": "Point",
        "coordinates": [
          -78.29039837853647,
          -30.643716013191707
        ]
      }
    },
    {
      "type": "Feature",
      "properties": {
        "norad_id": 43539,
        "name": "BEIDOU-2 IGSO-7 (C16)",
        "group": "beidou",
        "lat": 42.47250134287059,
        "lon": -54.89599489936118,
        "alt_km": 35919.426022166735,
        "timestamp": "2025-12-02T07:10:09.380552+00:00",
        "meta_object_name": "BEIDOU-2 IGSO-7 (C16)",
        "meta_object_id": "2018-057A",
        "meta_epoch": "2025-12-01T10:54:56.772000",
        "meta_mean_motion": 1.00260153,
        "meta_eccentricity": 0.00924483,
        "meta_inclination": 55.1734,
        "meta_ra_of_asc_node": 164.7711,
        "meta_arg_of_pericenter": 235.1555,
        "meta_mean_anomaly": 305.8956,
        "meta_ephemeris_type": 0,
        "meta_classification_type": "U",
        "meta_norad_cat_id": 43539,
        "meta_element_set_no": 999,
        "meta_rev_at_epoch": 2714,
        "meta_bstar": 0,
        "meta_mean_motion_dot": -1.9e-07,
        "meta_mean_motion_ddot": 0,
        "tle_line1": "1 43539U 18057A   25335.45482375 -.00000019  00000+0  00000+0 0  9990",
        "tle_line2": "2 43539  55.1734 164.7711 0092448 235.1555 305.8956  1.00260153 27149"
      },
      "geometry": {
        "type": "Point",
        "coordinates": [
          -54.89599489936118,
          42.47250134287059
        ]
      }
    },
    {
      "type": "Feature",
      "properties": {
        "norad_id": 43581,
        "name": "BEIDOU-3 M5 (C23)",
        "group": "beidou",
        "lat": 7.656826013784147,
        "lon": 3.417922532202273,
        "alt_km": 21533.463663578572,
        "timestamp": "2025-12-02T07:10:09.380563+00:00",
        "meta_object_name": "BEIDOU-3 M5 (C23)",
        "meta_object_id": "2018-062A",
        "meta_epoch": "2025-11-30T23:17:32.661024",
        "meta_mean_motion": 1.8622853,
        "meta_eccentricity": 0.0002124,
        "meta_inclination": 54.0891,
        "meta_ra_of_asc_node": 189.0442,
        "meta_arg_of_pericenter": 349.7703,
        "meta_mean_anomaly": 10.3183,
        "meta_ephemeris_type": 0,
        "meta_classification_type": "U",
        "meta_norad_cat_id": 43581,
        "meta_element_set_no": 999,
        "meta_rev_at_epoch": 4994,
        "meta_bstar": 0,
        "meta_mean_motion_dot": 1.17e-06,
        "meta_mean_motion_ddot": 0,
        "tle_line1": "1 43581U 18062A   25334.97051691  .00000117  00000+0  00000+0 0  9990",
        "tle_line2": "2 43581  54.0891 189.0442 0002124 349.7703  10.3183  1.86228530 49947"
      },
      "geometry": {
        "type": "Point",
        "coordinates": [
          3.417922532202273,
          7.656826013784147
        ]
      }
    },
    {
      "type": "Feature",
      "properties": {
        "norad_id": 43582,
        "name": "BEIDOU-3 M6 (C24)",
        "group": "beidou",
        "lat": -53.365658691823114,
        "lon": 86.00030234028432,
        "alt_km": 21551.0629169291,
        "timestamp": "2025-12-02T07:10:09.380574+00:00",
        "meta_object_name": "BEIDOU-3 M6 (C24)",
        "meta_object_id": "2018-062B",
        "meta_epoch": "2025-11-29T18:14:01.707936",
        "meta_mean_motion": 1.86229617,
        "meta_eccentricity": 0.00076529,
        "meta_inclination": 54.0888,
        "meta_ra_of_asc_node": 189.0746,
        "meta_arg_of_pericenter": 45.4041,
        "meta_mean_anomaly": 314.7474,
        "meta_ephemeris_type": 0,
        "meta_classification_type": "U",
        "meta_norad_cat_id": 43582,
        "meta_element_set_no": 999,
        "meta_rev_at_epoch": 4992,
        "meta_bstar": 0,
        "meta_mean_motion_dot": 1.07e-06,
        "meta_mean_motion_ddot": 0,
        "tle_line1": "1 43582U 18062B   25333.75974199  .00000107  00000+0  00000+0 0  9992",
        "tle_line2": "2 43582  54.0888 189.0746 0007652  45.4041 314.7474  1.86229617 49926"
      },
      "geometry": {
        "type": "Point",
        "coordinates": [
          86.00030234028432,
          -53.365658691823114
        ]
      }
    },
    {
      "type": "Feature",
      "properties": {
        "norad_id": 43602,
        "name": "BEIDOU-3 M12 (C26)",
        "group": "beidou",
        "lat": -42.243375701848436,
        "lon": 146.7512224005134,
        "alt_km": 21536.15251442994,
        "timestamp": "2025-12-02T07:10:09.380586+00:00",
        "meta_object_name": "BEIDOU-3 M12 (C26)",
        "meta_object_id": "2018-067A",
        "meta_epoch": "2025-11-30T18:30:45.050400",
        "meta_mean_motion": 1.86227632,
        "meta_eccentricity": 0.00091359,
        "meta_inclination": 54.1832,
        "meta_ra_of_asc_node": 187.7696,
        "meta_arg_of_pericenter": 40.335,
        "meta_mean_anomaly": 319.8244,
        "meta_ephemeris_type": 0,
        "meta_classification_type": "U",
        "meta_norad_cat_id": 43602,
        "meta_element_set_no": 999,
        "meta_rev_at_epoch": 4942,
        "meta_bstar": 0,
        "meta_mean_motion_dot": 1.18e-06,
        "meta_mean_motion_ddot": 0,
        "tle_line1": "1 43602U 18067A   25334.77135475  .00000118  00000+0  00000+0 0  9991",
        "tle_line2": "2 43602  54.1832 187.7696 0009135  40.3350 319.8244  1.86227632 49424"
      },
      "geometry": {
        "type": "Point",
        "coordinates": [
          146.7512224005134,
          -42.243375701848436
        ]
      }
    }
  ]
}